STARLINK-2124
1 27402C 21005BF  21325.14193322  .00008606  00000-0  57659-3 0  3251
2 27402  53.0534 237.5977 0001969  67.1372  76.7565 15.06393104    19
